{"fetched_at": "2026-06-04T18:22:40.347411+00:00", "line1": "1 55131U 23002A   26154.66930644 -.00000165  00000+0  00000+0 0  9999", "line2": "2 55131   3.6827  78.4813 0003973 278.4105 293.1700  1.00091075 12371"}
{"fetched_at": "2026-06-22T01:52:46.664558+00:00", "line1": "1 55131U 23002A   26171.49181124 -.00000272  00000+0  00000+0 0  9999", "line2": "2 55131   3.7270  78.2744 0003795 275.1369 238.2597  1.00087098 12546"}
{"fetched_at": "2026-06-24T08:25:59.698044+00:00", "line1": "1 55131U 23002A   26173.70189752 -.00000276  00000+0  00000+0 0  9994", "line2": "2 55131   3.7324  78.2493 0003775 276.9923 312.7682  1.00086767 12567"}
{"fetched_at": "2026-06-24T08:26:28.889926+00:00", "line1": "1 55131U 23002A   26171.49181124 -.00000272  00000+0  00000+0 0  9999", "line2": "2 55131   3.7270  78.2744 0003795 275.1369 238.2597  1.00087098 12546"}
